{
    "links": {
        "self": "http://www.neowsapp.com/rest/v1/neo/3557482?api_key=iIulBulltgU6a56xZRHN4H3l9WmuAYTsLGpBGhQ2"
    },
    "id": "3557482",
    "neo_reference_id": "3557482",
    "name": "(2011 CU46)",
    "designation": "2011 CU46",
    "nasa_jpl_url": "http://ssd.jpl.nasa.gov/sbdb.cgi?sstr=3557482",
    "absolute_magnitude_h": 25.5,
    "estimated_diameter": {
        "kilometers": {
            "estimated_diameter_min": 0.0211132445,
            "estimated_diameter_max": 0.0472106499
        },
        "meters": {
            "estimated_diameter_min": 21.113244479,
            "estimated_diameter_max": 47.2106498806
        },
        "miles": {
            "estimated_diameter_min": 0.0131191578,
            "estimated_diameter_max": 0.0293353287
        },
        "feet": {
            "estimated_diameter_min": 69.2691770164,
            "estimated_diameter_max": 154.8905885541
        }
    },
    "is_potentially_hazardous_asteroid": false,
    "close_approach_data": [
        {
            "close_approach_date": "2011-02-08",
            "close_approach_date_full": "2011-Feb-08 00:34",
            "epoch_date_close_approach": 1297125240000,
            "relative_velocity": {
                "kilometers_per_second": "15.6311130705",
                "kilometers_per_hour": "56272.0070538439",
                "miles_per_hour": "34965.2368274287"
            },
            "miss_distance": {
                "astronomical": "0.0097845902",
                "lunar": "3.8062055878",
                "kilometers": "1463753.852742874",
                "miles": "909534.4684207012"
            },
            "orbiting_body": "Moon"
        },
        {
            "close_approach_date": "2011-02-08",
            "close_approach_date_full": "2011-Feb-08 03:17",
            "epoch_date_close_approach": 1297135020000,
            "relative_velocity": {
                "kilometers_per_second": "16.3920491786",
                "kilometers_per_hour": "59011.3770430234",
                "miles_per_hour": "36667.3748076497"
            },
            "miss_distance": {
                "astronomical": "0.0114231922",
                "lunar": "4.4436217658",
                "kilometers": "1708885.221720614",
                "miles": "1061852.0380439132"
            },
            "orbiting_body": "Earth"
        },
        {
            "close_approach_date": "2059-02-05",
            "close_approach_date_full": "2059-Feb-05 13:50",
            "epoch_date_close_approach": 2811678600000,
            "relative_velocity": {
                "kilometers_per_second": "14.9090903177",
                "kilometers_per_hour": "53672.7251435432",
                "miles_per_hour": "33350.1441315533"
            },
            "miss_distance": {
                "astronomical": "0.0398536854",
                "lunar": "15.5030836206",
                "kilometers": "5962026.447490098",
                "miles": "3704631.4484274324"
            },
            "orbiting_body": "Earth"
        },
        {
            "close_approach_date": "2088-07-26",
            "close_approach_date_full": "2088-Jul-26 14:18",
            "epoch_date_close_approach": 3741689880000,
            "relative_velocity": {
                "kilometers_per_second": "25.1790037176",
                "kilometers_per_hour": "90644.4133833632",
                "miles_per_hour": "56322.9134159015"
            },
            "miss_distance": {
                "astronomical": "0.3170396118",
                "lunar": "123.3284089902",
                "kilometers": "47428450.630906866",
                "miles": "29470672.6487961108"
            },
            "orbiting_body": "Earth"
        }
    ],
    "orbital_data": {
        "orbit_id": "5",
        "orbit_determination_date": "2017-04-06 08:54:30",
        "first_observation_date": "2011-02-11",
        "last_observation_date": "2011-02-12",
        "data_arc_in_days": 1,
        "observations_used": 14,
        "orbit_uncertainty": "9",
        "minimum_orbit_intersection": ".00254061",
        "jupiter_tisserand_invariant": "4.588",
        "epoch_osculation": "2455604.5",
        "eccentricity": ".53156933383155",
        "semi_major_axis": "1.399479187040036",
        "inclination": "8.009051358942127",
        "ascending_node_longitude": "140.1576929425685",
        "orbital_period": "604.7113122218691",
        "perihelion_distance": ".6555589678740451",
        "perihelion_argument": "269.8861465153827",
        "aphelion_distance": "2.143399406206028",
        "perihelion_time": "2455548.558524630438",
        "mean_anomaly": "33.30338084638531",
        "mean_motion": ".5953253936614232",
        "equinox": "J2000",
        "orbit_class": {
            "orbit_class_type": "APO",
            "orbit_class_description": "Near-Earth asteroid orbits which cross the Earth’s orbit similar to that of 1862 Apollo",
            "orbit_class_range": "a (semi-major axis) > 1.0 AU; q (perihelion) < 1.017 AU"
        }
    },
    "is_sentry_object": false
}